GLOBALSTAR M082         
1 38042U 11080C   26117.18752321 -.00000088  00000+0  89466-4 0  9996
2 38042  52.0049 129.7388 0000365 144.7791 304.4279 12.62269323663150
GLOBALSTAR M092         
1 38043U 11080D   26116.70305656 -.00000103  00000+0  59238-5 0  9992
2 38043  52.0084 221.6086 0000514 121.2924  44.7277 12.62266710661541
GLOBALSTAR M090         
1 38044U 11080E   26117.21226318 -.00000086  00000+0  97453-4 0  9997
2 38044  52.0101 123.6024 0000076  96.6801 344.1281 12.62268308663276
GLOBALSTAR M086         
1 38045U 11080F   26117.06721617 -.00000078  00000+0  14566-3 0  9997
2 38045  51.9872 124.0574 0000868 305.9406  92.9477 12.62285520663204
GLOBALSTAR M097         
1 39072U 13005A   26117.16773220 -.00000105  00000+0 -59588-5 0  9992
2 39072  52.0065  38.6378 0000443  77.0264 283.0653 12.62260065610467
GLOBALSTAR M093         
1 39073U 13005B   26117.14147833 -.00000097  00000+0  36198-4 0  9996
2 39073  52.0126  32.0478 0000328  84.1132 275.9772 12.62264615610412
GLOBALSTAR M094         
1 39074U 13005C   26116.90398363 -.00000076  00000+0  15308-3 0  9992
2 39074  51.9962 306.9425 0000652 113.9715 246.1220 12.62267888611999
GLOBALSTAR M096         
1 39075U 13005D   26116.99648345 -.00000085  00000+0  10318-3 0  9996
2 39075  52.0099 355.4206 0000654  95.0446 265.0496 12.62264361610922
GLOBALSTAR M078         
1 39076U 13005E   26117.20694744 -.00000107  00000+0 -19570-4 0  9992
2 39076  51.9870  78.8543 0001037 129.2195 230.8764 12.62266002609576
GLOBALSTAR M095         
1 39077U 13005F   26117.15457844 -.00000105  00000+0 -60537-5 0  9993
2 39077  52.0076  76.5467 0000364 129.3836 230.7063 12.62267334609426
GLOBALSTAR M087         
1 52888U 22064A   26117.00966344 -.00000103  00000+0  34078-5 0  9995
2 52888  51.9994 218.2610 0000581 154.6534 205.4361 12.62268376184672
