[{"OBJECT_NAME":"GLOBALSTAR M082","OBJECT_ID":"2011-080C","EPOCH":"2026-04-27T04:30:02.005344","MEAN_MOTION":12.62269323,"ECCENTRICITY":3.65e-5,"INCLINATION":52.0049,"RA_OF_ASC_NODE":129.7388,"ARG_OF_PERICENTER":144.7791,"MEAN_ANOMALY":304.4279,"EPHEMERIS_TYPE":0,"CLASSIFICATION_TYPE":"U","NORAD_CAT_ID":38042,"ELEMENT_SET_NO":999,"REV_AT_EPOCH":66315,"BSTAR":8.9466e-5,"MEAN_MOTION_DOT":-8.8e-7,"MEAN_MOTION_DDOT":0},{"OBJECT_NAME":"GLOBALSTAR M092","OBJECT_ID":"2011-080D","EPOCH":"2026-04-26T16:52:24.086784","MEAN_MOTION":12.6226671,"ECCENTRICITY":5.146e-5,"INCLINATION":52.0084,"RA_OF_ASC_NODE":221.6086,"ARG_OF_PERICENTER":121.2924,"MEAN_ANOMALY":44.7277,"EPHEMERIS_TYPE":0,"CLASSIFICATION_TYPE":"U","NORAD_CAT_ID":38043,"ELEMENT_SET_NO":999,"REV_AT_EPOCH":66154,"BSTAR":5.923827e-6,"MEAN_MOTION_DOT":-1.03e-6,"MEAN_MOTION_DDOT":0},{"OBJECT_NAME":"GLOBALSTAR M090","OBJECT_ID":"2011-080E","EPOCH":"2026-04-27T05:05:39.538752","MEAN_MOTION":12.62268308,"ECCENTRICITY":7.6e-6,"INCLINATION":52.0101,"RA_OF_ASC_NODE":123.6024,"ARG_OF_PERICENTER":96.6801,"MEAN_ANOMALY":344.1281,"EPHEMERIS_TYPE":0,"CLASSIFICATION_TYPE":"U","NORAD_CAT_ID":38044,"ELEMENT_SET_NO":999,"REV_AT_EPOCH":66327,"BSTAR":9.7453e-5,"MEAN_MOTION_DOT":-8.6e-7,"MEAN_MOTION_DDOT":0},{"OBJECT_NAME":"GLOBALSTAR M086","OBJECT_ID":"2011-080F","EPOCH":"2026-04-27T01:36:47.477088","MEAN_MOTION":12.6228552,"ECCENTRICITY":8.68e-5,"INCLINATION":51.9872,"RA_OF_ASC_NODE":124.0574,"ARG_OF_PERICENTER":305.9406,"MEAN_ANOMALY":92.9477,"EPHEMERIS_TYPE":0,"CLASSIFICATION_TYPE":"U","NORAD_CAT_ID":38045,"ELEMENT_SET_NO":999,"REV_AT_EPOCH":66320,"BSTAR":0.00014566,"MEAN_MOTION_DOT":-7.8e-7,"MEAN_MOTION_DDOT":0},{"OBJECT_NAME":"GLOBALSTAR M097","OBJECT_ID":"2013-005A","EPOCH":"2026-04-27T04:01:32.062080","MEAN_MOTION":12.62260065,"ECCENTRICITY":4.43e-5,"INCLINATION":52.0065,"RA_OF_ASC_NODE":38.6378,"ARG_OF_PERICENTER":77.0264,"MEAN_ANOMALY":283.0653,"EPHEMERIS_TYPE":0,"CLASSIFICATION_TYPE":"U","NORAD_CAT_ID":39072,"ELEMENT_SET_NO":999,"REV_AT_EPOCH":61046,"BSTAR":-5.9588e-6,"MEAN_MOTION_DOT":-1.05e-6,"MEAN_MOTION_DDOT":0},{"OBJECT_NAME":"GLOBALSTAR M093","OBJECT_ID":"2013-005B","EPOCH":"2026-04-27T03:23:43.727712","MEAN_MOTION":12.62264615,"ECCENTRICITY":3.28e-5,"INCLINATION":52.0126,"RA_OF_ASC_NODE":32.0478,"ARG_OF_PERICENTER":84.1132,"MEAN_ANOMALY":275.9772,"EPHEMERIS_TYPE":0,"CLASSIFICATION_TYPE":"U","NORAD_CAT_ID":39073,"ELEMENT_SET_NO":999,"REV_AT_EPOCH":61041,"BSTAR":3.6198e-5,"MEAN_MOTION_DOT":-9.7e-7,"MEAN_MOTION_DDOT":0},{"OBJECT_NAME":"GLOBALSTAR M094","OBJECT_ID":"2013-005C","EPOCH":"2026-04-26T21:41:44.185632","MEAN_MOTION":12.62267888,"ECCENTRICITY":6.52e-5,"INCLINATION":51.9962,"RA_OF_ASC_NODE":306.9425,"ARG_OF_PERICENTER":113.9715,"MEAN_ANOMALY":246.122,"EPHEMERIS_TYPE":0,"CLASSIFICATION_TYPE":"U","NORAD_CAT_ID":39074,"ELEMENT_SET_NO":999,"REV_AT_EPOCH":61199,"BSTAR":0.00015308,"MEAN_MOTION_DOT":-7.6e-7,"MEAN_MOTION_DDOT":0},{"OBJECT_NAME":"GLOBALSTAR M096","OBJECT_ID":"2013-005D","EPOCH":"2026-04-26T23:54:56.170080","MEAN_MOTION":12.62264361,"ECCENTRICITY":6.54e-5,"INCLINATION":52.0099,"RA_OF_ASC_NODE":355.4206,"ARG_OF_PERICENTER":95.0446,"MEAN_ANOMALY":265.0496,"EPHEMERIS_TYPE":0,"CLASSIFICATION_TYPE":"U","NORAD_CAT_ID":39075,"ELEMENT_SET_NO":999,"REV_AT_EPOCH":61092,"BSTAR":0.00010318,"MEAN_MOTION_DOT":-8.5e-7,"MEAN_MOTION_DDOT":0},{"OBJECT_NAME":"GLOBALSTAR M078","OBJECT_ID":"2013-005E","EPOCH":"2026-04-27T04:58:00.258816","MEAN_MOTION":12.62266002,"ECCENTRICITY":0.0001037,"INCLINATION":51.987,"RA_OF_ASC_NODE":78.8543,"ARG_OF_PERICENTER":129.2195,"MEAN_ANOMALY":230.8764,"EPHEMERIS_TYPE":0,"CLASSIFICATION_TYPE":"U","NORAD_CAT_ID":39076,"ELEMENT_SET_NO":999,"REV_AT_EPOCH":60957,"BSTAR":-1.957e-5,"MEAN_MOTION_DOT":-1.07e-6,"MEAN_MOTION_DDOT":0},{"OBJECT_NAME":"GLOBALSTAR M095","OBJECT_ID":"2013-005F","EPOCH":"2026-04-27T03:42:35.577216","MEAN_MOTION":12.62267334,"ECCENTRICITY":3.64e-5,"INCLINATION":52.0076,"RA_OF_ASC_NODE":76.5467,"ARG_OF_PERICENTER":129.3836,"MEAN_ANOMALY":230.7063,"EPHEMERIS_TYPE":0,"CLASSIFICATION_TYPE":"U","NORAD_CAT_ID":39077,"ELEMENT_SET_NO":999,"REV_AT_EPOCH":60942,"BSTAR":-6.0537e-6,"MEAN_MOTION_DOT":-1.05e-6,"MEAN_MOTION_DDOT":0},{"OBJECT_NAME":"GLOBALSTAR M087","OBJECT_ID":"2022-064A","EPOCH":"2026-04-27T00:13:54.921216","MEAN_MOTION":12.62268376,"ECCENTRICITY":5.81e-5,"INCLINATION":51.9994,"RA_OF_ASC_NODE":218.261,"ARG_OF_PERICENTER":154.6534,"MEAN_ANOMALY":205.4361,"EPHEMERIS_TYPE":0,"CLASSIFICATION_TYPE":"U","NORAD_CAT_ID":52888,"ELEMENT_SET_NO":999,"REV_AT_EPOCH":18467,"BSTAR":3.4078e-6,"MEAN_MOTION_DOT":-1.03e-6,"MEAN_MOTION_DDOT":0}]
